[{"OBJECT_NAME":"SES-6","OBJECT_ID":"2013-026A","EPOCH":"2026-03-14T11:44:23.576928","MEAN_MOTION":1.00271082,"ECCENTRICITY":0.00020486,"INCLINATION":0.0483,"RA_OF_ASC_NODE":301.5749,"ARG_OF_PERICENTER":73.4175,"MEAN_ANOMALY":292.6989,"EPHEMERIS_TYPE":0,"CLASSIFICATION_TYPE":"U","NORAD_CAT_ID":39172,"ELEMENT_SET_NO":999,"REV_AT_EPOCH":4677,"BSTAR":0,"MEAN_MOTION_DOT":-2.62e-6,"MEAN_MOTION_DDOT":0},{"OBJECT_NAME":"IRNSS-1A","OBJECT_ID":"2013-034A","EPOCH":"2026-03-14T01:08:21.780384","MEAN_MOTION":1.00272937,"ECCENTRICITY":0.00173426,"INCLINATION":35.512,"RA_OF_ASC_NODE":65.2274,"ARG_OF_PERICENTER":190.9436,"MEAN_ANOMALY":347.4797,"EPHEMERIS_TYPE":0,"CLASSIFICATION_TYPE":"U","NORAD_CAT_ID":39199,"ELEMENT_SET_NO":999,"REV_AT_EPOCH":4641,"BSTAR":0,"MEAN_MOTION_DOT":9.5e-7,"MEAN_MOTION_DDOT":0},{"OBJECT_NAME":"MUOS-2","OBJECT_ID":"2013-036A","EPOCH":"2026-03-14T13:17:51.420768","MEAN_MOTION":1.00269567,"ECCENTRICITY":0.00522395,"INCLINATION":4.8069,"RA_OF_ASC_NODE":45.3459,"ARG_OF_PERICENTER":183.5541,"MEAN_ANOMALY":314.7274,"EPHEMERIS_TYPE":0,"CLASSIFICATION_TYPE":"U","NORAD_CAT_ID":39206,"ELEMENT_SET_NO":999,"REV_AT_EPOCH":4624,"BSTAR":0,"MEAN_MOTION_DOT":-1.0e-7,"MEAN_MOTION_DDOT":0},{"OBJECT_NAME":"ALPHASAT","OBJECT_ID":"2013-038A","EPOCH":"2026-03-14T12:02:59.293824","MEAN_MOTION":1.00272114,"ECCENTRICITY":0.00018976,"INCLINATION":2.9838,"RA_OF_ASC_NODE":2.1432,"ARG_OF_PERICENTER":19.4488,"MEAN_ANOMALY":356.1494,"EPHEMERIS_TYPE":0,"CLASSIFICATION_TYPE":"U","NORAD_CAT_ID":39215,"ELEMENT_SET_NO":999,"REV_AT_EPOCH":4307,"BSTAR":0,"MEAN_MOTION_DOT":1.36e-6,"MEAN_MOTION_DDOT":0},{"OBJECT_NAME":"INSAT-3D","OBJECT_ID":"2013-038B","EPOCH":"2026-03-14T14:15:31.584384","MEAN_MOTION":1.00276418,"ECCENTRICITY":0.00015489,"INCLINATION":1.6801,"RA_OF_ASC_NODE":83.7801,"ARG_OF_PERICENTER":245.2557,"MEAN_ANOMALY":186.5583,"EPHEMERIS_TYPE":0,"CLASSIFICATION_TYPE":"U","NORAD_CAT_ID":39216,"ELEMENT_SET_NO":999,"REV_AT_EPOCH":4613,"BSTAR":0,"MEAN_MOTION_DOT":-3.39e-6,"MEAN_MOTION_DDOT":0},{"OBJECT_NAME":"WGS F6 (USA 244)","OBJECT_ID":"2013-041A","EPOCH":"2026-03-13T08:05:38.605632","MEAN_MOTION":1.00272994,"ECCENTRICITY":9.494e-5,"INCLINATION":0.025,"RA_OF_ASC_NODE":147.1038,"ARG_OF_PERICENTER":185.019,"MEAN_ANOMALY":185.0872,"EPHEMERIS_TYPE":0,"CLASSIFICATION_TYPE":"U","NORAD_CAT_ID":39222,"ELEMENT_SET_NO":999,"REV_AT_EPOCH":4510,"BSTAR":0,"MEAN_MOTION_DOT":0,"MEAN_MOTION_DDOT":0},{"OBJECT_NAME":"ES'HAIL 1","OBJECT_ID":"2013-044A","EPOCH":"2026-03-14T13:45:56.920608","MEAN_MOTION":1.00269657,"ECCENTRICITY":0.00027925,"INCLINATION":0.0258,"RA_OF_ASC_NODE":20.528,"ARG_OF_PERICENTER":332.4971,"MEAN_ANOMALY":51.156,"EPHEMERIS_TYPE":0,"CLASSIFICATION_TYPE":"U","NORAD_CAT_ID":39233,"ELEMENT_SET_NO":999,"REV_AT_EPOCH":4567,"BSTAR":0,"MEAN_MOTION_DOT":0,"MEAN_MOTION_DDOT":0},{"OBJECT_NAME":"GSAT-7","OBJECT_ID":"2013-044B","EPOCH":"2026-03-13T23:41:57.770880","MEAN_MOTION":1.00271978,"ECCENTRICITY":0.00059826,"INCLINATION":0.0461,"RA_OF_ASC_NODE":94.9951,"ARG_OF_PERICENTER":201.155,"MEAN_ANOMALY":304.9317,"EPHEMERIS_TYPE":0,"CLASSIFICATION_TYPE":"U","NORAD_CAT_ID":39234,"ELEMENT_SET_NO":999,"REV_AT_EPOCH":4430,"BSTAR":0,"MEAN_MOTION_DOT":-7.7e-7,"MEAN_MOTION_DDOT":0},{"OBJECT_NAME":"AMOS-4","OBJECT_ID":"2013-045A","EPOCH":"2026-03-14T13:57:10.844064","MEAN_MOTION":1.00271841,"ECCENTRICITY":0.00035355,"INCLINATION":0.0406,"RA_OF_ASC_NODE":243.8779,"ARG_OF_PERICENTER":111.7826,"MEAN_ANOMALY":90.8109,"EPHEMERIS_TYPE":0,"CLASSIFICATION_TYPE":"U","NORAD_CAT_ID":39237,"ELEMENT_SET_NO":999,"REV_AT_EPOCH":4600,"BSTAR":0,"MEAN_MOTION_DOT":7.0e-8,"MEAN_MOTION_DDOT":0},{"OBJECT_NAME":"AEHF-3 (USA 246)","OBJECT_ID":"2013-050A","EPOCH":"2026-03-14T13:03:08.525088","MEAN_MOTION":1.00275364,"ECCENTRICITY":0.00913101,"INCLINATION":5.0615,"RA_OF_ASC_NODE":68.0546,"ARG_OF_PERICENTER":188.1715,"MEAN_ANOMALY":347.5235,"EPHEMERIS_TYPE":0,"CLASSIFICATION_TYPE":"U","NORAD_CAT_ID":39256,"ELEMENT_SET_NO":999,"REV_AT_EPOCH":4470,"BSTAR":0,"MEAN_MOTION_DOT":3.0e-7,"MEAN_MOTION_DDOT":0},{"OBJECT_NAME":"ASTRA 2E","OBJECT_ID":"2013-056A","EPOCH":"2026-03-14T13:46:41.848608","MEAN_MOTION":1.00269058,"ECCENTRICITY":0.0002624,"INCLINATION":0.0874,"RA_OF_ASC_NODE":45.3685,"ARG_OF_PERICENTER":301.4478,"MEAN_ANOMALY":60.5354,"EPHEMERIS_TYPE":0,"CLASSIFICATION_TYPE":"U","NORAD_CAT_ID":39285,"ELEMENT_SET_NO":999,"REV_AT_EPOCH":4546,"BSTAR":0,"MEAN_MOTION_DOT":1.49e-6,"MEAN_MOTION_DDOT":0},{"OBJECT_NAME":"FM-6","OBJECT_ID":"2013-058A","EPOCH":"2026-03-13T16:33:13.247424","MEAN_MOTION":1.00269118,"ECCENTRICITY":0.00032665,"INCLINATION":0.0194,"RA_OF_ASC_NODE":140.7287,"ARG_OF_PERICENTER":45.2547,"MEAN_ANOMALY":117.4447,"EPHEMERIS_TYPE":0,"CLASSIFICATION_TYPE":"U","NORAD_CAT_ID":39360,"ELEMENT_SET_NO":999,"REV_AT_EPOCH":4511,"BSTAR":0,"MEAN_MOTION_DOT":-1.7e-7,"MEAN_MOTION_DDOT":0},{"OBJECT_NAME":"RADUGA-1M 3","OBJECT_ID":"2013-062A","EPOCH":"2026-03-13T06:50:38.558400","MEAN_MOTION":1.00272833,"ECCENTRICITY":3.385e-5,"INCLINATION":5.7163,"RA_OF_ASC_NODE":73.5639,"ARG_OF_PERICENTER":323.1584,"MEAN_ANOMALY":271.8576,"EPHEMERIS_TYPE":0,"CLASSIFICATION_TYPE":"U","NORAD_CAT_ID":39375,"ELEMENT_SET_NO":999,"REV_AT_EPOCH":4514,"BSTAR":0,"MEAN_MOTION_DOT":1.55e-6,"MEAN_MOTION_DDOT":0},{"OBJECT_NAME":"SES-8","OBJECT_ID":"2013-071A","EPOCH":"2026-03-14T15:32:36.997152","MEAN_MOTION":1.00273148,"ECCENTRICITY":0.0001893,"INCLINATION":0.038,"RA_OF_ASC_NODE":263.8994,"ARG_OF_PERICENTER":123.4553,"MEAN_ANOMALY":113.0606,"EPHEMERIS_TYPE":0,"CLASSIFICATION_TYPE":"U","NORAD_CAT_ID":39460,"ELEMENT_SET_NO":999,"REV_AT_EPOCH":4349,"BSTAR":0,"MEAN_MOTION_DOT":-2.7e-6,"MEAN_MOTION_DDOT":0},{"OBJECT_NAME":"INMARSAT 5-F1","OBJECT_ID":"2013-073A","EPOCH":"2026-03-13T16:34:11.875872","MEAN_MOTION":1.00271708,"ECCENTRICITY":4.149e-5,"INCLINATION":0.0188,"RA_OF_ASC_NODE":141.3479,"ARG_OF_PERICENTER":316.85,"MEAN_ANOMALY":24.2236,"EPHEMERIS_TYPE":0,"CLASSIFICATION_TYPE":"U","NORAD_CAT_ID":39476,"ELEMENT_SET_NO":999,"REV_AT_EPOCH":4462,"BSTAR":0,"MEAN_MOTION_DOT":2.8e-7,"MEAN_MOTION_DDOT":0},{"OBJECT_NAME":"TKSAT-1 (TUPAC KATARI)","OBJECT_ID":"2013-075A","EPOCH":"2026-03-14T13:13:45.007968","MEAN_MOTION":1.00270884,"ECCENTRICITY":0.00029186,"INCLINATION":0.0404,"RA_OF_ASC_NODE":325.8233,"ARG_OF_PERICENTER":26.5003,"MEAN_ANOMALY":291.0751,"EPHEMERIS_TYPE":0,"CLASSIFICATION_TYPE":"U","NORAD_CAT_ID":39481,"ELEMENT_SET_NO":999,"REV_AT_EPOCH":4465,"BSTAR":0,"MEAN_MOTION_DOT":-1.95e-6,"MEAN_MOTION_DDOT":0},{"OBJECT_NAME":"EXPRESS-AM5","OBJECT_ID":"2013-077A","EPOCH":"2026-03-13T09:50:38.642208","MEAN_MOTION":1.00270622,"ECCENTRICITY":0.00021526,"INCLINATION":0.0137,"RA_OF_ASC_NODE":231.7554,"ARG_OF_PERICENTER":93.284,"MEAN_ANOMALY":133.6751,"EPHEMERIS_TYPE":0,"CLASSIFICATION_TYPE":"U","NORAD_CAT_ID":39487,"ELEMENT_SET_NO":999,"REV_AT_EPOCH":4540,"BSTAR":0,"MEAN_MOTION_DOT":-2.8e-6,"MEAN_MOTION_DDOT":0}]
