SES-6                   
1 39172U 13026A   26073.48916177 -.00000262  00000+0  00000+0 0  9994
2 39172   0.0483 301.5749 0002048  73.4175 292.6989  1.00271082 46779
IRNSS-1A                
1 39199U 13034A   26073.04747431  .00000095  00000+0  00000+0 0  9992
2 39199  35.5120  65.2274 0017342 190.9436 347.4797  1.00272937 46411
MUOS-2                  
1 39206U 13036A   26073.55406737 -.00000010  00000+0  00000+0 0  9998
2 39206   4.8069  45.3459 0052239 183.5541 314.7274  1.00269567 46247
ALPHASAT                
1 39215U 13038A   26073.50207516  .00000136  00000+0  00000+0 0  9997
2 39215   2.9838   2.1432 0001897  19.4488 356.1494  1.00272114 43077
INSAT-3D                
1 39216U 13038B   26073.59411556 -.00000339  00000+0  00000+0 0  9994
2 39216   1.6801  83.7801 0001548 245.2557 186.5583  1.00276418 46133
WGS F6 (USA 244)        
1 39222U 13041A   26072.33725238  .00000000  00000+0  00000+0 0  9995
2 39222   0.0250 147.1038 0000949 185.0190 185.0872  1.00272994 45102
ES'HAIL 1               
1 39233U 13044A   26073.57357547  .00000000  00000+0  00000+0 0  9991
2 39233   0.0258  20.5280 0002792 332.4971  51.1560  1.00269657 45679
GSAT-7                  
1 39234U 13044B   26072.98747420 -.00000077  00000+0  00000+0 0  9994
2 39234   0.0461  94.9951 0005982 201.1550 304.9317  1.00271978 44302
AMOS-4                  
1 39237U 13045A   26073.58137551  .00000007  00000+0  00000+0 0  9995
2 39237   0.0406 243.8779 0003535 111.7826  90.8109  1.00271841 46009
AEHF-3 (USA 246)        
1 39256U 13050A   26073.54384867  .00000030  00000+0  00000+0 0  9998
2 39256   5.0615  68.0546 0091310 188.1715 347.5235  1.00275364 44700
ASTRA 2E                
1 39285U 13056A   26073.57409547  .00000149  00000+0  00000+0 0  9993
2 39285   0.0874  45.3685 0002624 301.4478  60.5354  1.00269058 45463
FM-6                    
1 39360U 13058A   26072.68973666 -.00000017  00000+0  00000+0 0  9993
2 39360   0.0194 140.7287 0003266  45.2547 117.4447  1.00269118 45117
RADUGA-1M 3             
1 39375U 13062A   26072.28516850  .00000155  00000+0  00000+0 0  9990
2 39375   5.7163  73.5639 0000338 323.1584 271.8576  1.00272833 45140
SES-8                   
1 39460U 13071A   26073.64765043 -.00000270  00000+0  00000+0 0  9995
2 39460   0.0380 263.8994 0001893 123.4553 113.0606  1.00273148 43493
INMARSAT 5-F1           
1 39476U 13073A   26072.69041523  .00000028  00000+0  00000+0 0  9998
2 39476   0.0188 141.3479 0000414 316.8500  24.2236  1.00271708 44620
TKSAT-1 (TUPAC KATARI)  
1 39481U 13075A   26073.55121537 -.00000195  00000+0  00000+0 0  9992
2 39481   0.0404 325.8233 0002918  26.5003 291.0751  1.00270884 44651
EXPRESS-AM5             
1 39487U 13077A   26072.41016947 -.00000280  00000+0  00000+0 0  9997
2 39487   0.0137 231.7554 0002152  93.2840 133.6751  1.00270622 45406
